STARLINK-1749           
1 46589U 20070BK  24044.09752344  .00015975  00000+0  10873-2 0  9996
2 46589  53.0558 308.6056 0001386  96.2560 263.8587 15.06455407185903
STARLINK-1755           
1 46591U 20070BM  24044.41820244  .00008030  00000+0  55689-3 0  9999
2 46591  53.0549 307.1633 0001770  72.2077 287.9105 15.06431594185954
STARLINK-1715           
1 46671U 20073B   24044.24776505  .00006878  00000+0  47993-3 0  9999
2 46671  53.0546  38.1675 0001604  90.5618 269.5555 15.06422148183674
STARLINK-1716           
1 46672U 20073C   24044.13208391  .00004002  00000+0  28730-3 0  9996
2 46672  53.0558  33.4438 0001392 101.6051 258.5094 15.06414211183737
STARLINK-1717           
1 46673U 20073D   24044.31317248  .00005463  00000+0  38527-3 0  9996
2 46673  53.0548  47.7602 0001419  85.1967 274.9184 15.06405295183543
STARLINK-1718           
1 46674U 20073E   24044.22423266  .00003266  00000+0  23795-3 0  9995
2 46674  53.0561  33.0301 0001462 106.1454 253.9696 15.06416667183748
STARLINK-1720           
1 46675U 20073F   24044.15419953  .00001709  00000+0  13355-3 0  9997
2 46675  53.0554  33.3441 0001320  96.2423 263.8716 15.06412769183738
STARLINK-1766           
1 46677U 20073H   24044.15051779  .00002975  00000+0  21845-3 0  9996
2 46677  53.0553  33.3621 0001376  80.2280 279.8865 15.06409409183733
STARLINK-1773           
1 46679U 20073K   24044.15604375  .00012236  00000+0  83841-3 0  9999
2 46679  53.0562  13.3420 0001459  89.3855 270.7301 15.06422109184020
STARLINK-1775           
1 46681U 20073M   24044.32790497  .00006005  00000+0  42153-3 0  9990
2 46681  53.0548  47.5677 0001643  73.5176 286.5993 15.06414294183540
STARLINK-1776           
1 46682U 20073N   24044.15466531  .00005609  00000+0  39499-3 0  9999
2 46682  53.0550  48.3459 0001671  94.9964 265.1216 15.06416195183637
STARLINK-1780           
1 46684U 20073Q   24044.14314183  .00001516  00000+0  12064-3 0  9997
2 46684  53.0563  33.3970 0001306  91.6134 268.5005 15.06407430183739
STARLINK-1781           
1 46685U 20073R   24044.22472486  .00003351  00000+0  24365-3 0  9994
2 46685  53.0533  48.3013 0001474  92.1218 267.9939 15.06419872183525
STARLINK-1783           
1 46686U 20073S   24044.17582376  .00004874  00000+0  34574-3 0  9993
2 46686  53.0570  48.2054 0001716 107.7363 252.3813 15.06414898183526
STARLINK-1784           
1 46687U 20073T   24044.16709582  .00010125  00000+0  69706-3 0  9994
2 46687  53.0545  13.2868 0001123 103.6919 256.4195 15.06430974184014
STARLINK-1788           
1 46689U 20073V   24044.15001690  .00002755  00000+0  21254-3 0  9996
2 46689  53.0550  48.6228 0001490 110.9605 249.1543 15.04781507183513
STARLINK-1789           
1 46690U 20073W   24044.25835596  .00027135  00000+0  18347-2 0  9996
2 46690  53.0558  22.8786 0002072  83.6583 276.4642 15.06376762183882
STARLINK-1790           
1 46691U 20073X   24044.19105505  .00004538  00000+0  32318-3 0  9997
2 46691  53.0548  33.1804 0001947 121.0877 239.0303 15.06420675183737
STARLINK-1791           
1 46692U 20073Y   24044.17677739  .00007622  00000+0  53011-3 0  9999
2 46692  53.0541  48.2439 0001352  83.5104 276.6039 15.06395873183528
STARLINK-1792           
1 46693U 20073Z   24044.12840533 -.00001405  00000+0 -75449-4 0  9994
2 46693  53.0560  33.4652 0001568  98.4413 261.6754 15.06391802183717
STARLINK-1793           
1 46694U 20073AA  24044.15234823  .00004663  00000+0  33155-3 0  9991
2 46694  53.0541  13.3510 0001329 109.7016 250.4117 15.06420636184029
STARLINK-1795           
1 46696U 20073AC  24044.17078365  .00012599  00000+0  86264-3 0  9998
2 46696  53.0560  13.2712 0001047  92.5864 267.5244 15.06422559184017
STARLINK-1797           
1 46698U 20073AE  24044.16062801  .00003591  00000+0  25972-3 0  9998
2 46698  53.0553  33.3062 0001425  87.6813 272.4339 15.06413980183715
STARLINK-1799           
1 46699U 20073AF  24044.16525641  .00001938  00000+0  14890-3 0  9995
2 46699  53.0556  33.2941 0001442  77.7979 282.3172 15.06417753183690
STARLINK-1800           
1 46700U 20073AG  24044.30210457  .00006702  00000+0  46825-3 0  9997
2 46700  53.0537  47.6843 0001352  83.7608 276.3535 15.06410737183543
STARLINK-1801           
1 46701U 20073AH  24044.20210987  .00009109  00000+0  62936-3 0  9990
2 46701  53.0546  33.1271 0001458 122.0178 238.0953 15.06415378183742
STARLINK-1802           
1 46702U 20073AJ  24044.14867510 -.00012399  00000+0 -81523-3 0  9994
2 46702  53.0552  13.3743 0001620 107.1059 253.0108 15.06387514184028
STARLINK-1803           
1 46703U 20073AK  24044.11365122  .00004470  00000+0  31861-3 0  9993
2 46703  53.0563  33.5290 0002172 133.6023 226.5147 15.06418689183722
STARLINK-1804           
1 46704U 20073AL  24044.15972175  .00002060  00000+0  15706-3 0  9993
2 46704  53.0560  13.3240 0001227  83.2325 276.8804 15.06418497184025
STARLINK-1805           
1 46705U 20073AM  24044.30578477  .00007054  00000+0  49176-3 0  9994
2 46705  53.0547  47.6644 0001459  97.5409 262.5746 15.06417034183546
STARLINK-1807           
1 46706U 20073AN  24044.14682548  .00005368  00000+0  37878-3 0  9994
2 46706  53.0552  33.3743 0001288 113.2968 246.8156 15.06418411183732
STARLINK-1808           
1 46707U 20073AP  24044.13760822  .00006072  00000+0  42586-3 0  9991
2 46707  53.0561  13.4222 0001338 100.0766 260.0374 15.06427892184026
STARLINK-1810           
1 46709U 20073AR  24044.28000423  .00011733  00000+0  80479-3 0  9996
2 46709  53.0550  47.9028 0001530  97.7179 262.3983 15.06421120183530
STARLINK-1813           
1 46711U 20073AT  24044.13945830  .00001541  00000+0  12230-3 0  9999
2 46711  53.0549  33.4070 0001267  94.7240 265.3894 15.06406358183711
STARLINK-1814           
1 46712U 20073AU  24044.25005827 -.00001219  00000+0 -62954-4 0  9999
2 46712  53.0544  33.0368 0001670 116.0633 244.0528 15.06401425183746
STARLINK-1815           
1 46713U 20073AV  24044.11639540  .00006017  00000+0  42227-3 0  9999
2 46713  53.0531  33.5089 0001699 112.1610 247.9559 15.06417232183728
STARLINK-1816           
1 46714U 20073AW  24044.10629225  .00010872  00000+0  74726-3 0  9991
2 46714  53.0554  33.5638 0001310  82.3747 277.7391 15.06418578183722
STARLINK-1817           
1 46715U 20073AX  24044.23528671  .00001370  00000+0  11082-3 0  9998
2 46715  53.0567  32.9846 0001550  84.2364 275.8802 15.06420458183741
STARLINK-1818           
1 46716U 20073AY  24044.31683670  .00002599  00000+0  19321-3 0  9997
2 46716  53.0549  47.6154 0001596  98.5720 261.5450 15.06416634183541
STARLINK-1820           
1 46717U 20073AZ  24044.12102784  .00010611  00000+0  72972-3 0  9994
2 46717  53.0558  33.4946 0001414  89.9313 270.1838 15.06423922183729
STARLINK-1821           
1 46718U 20073BA  24044.16572179  .00000805  00000+0  72923-4 0  9999
2 46718  53.0545  48.3331 0001305  87.9920 272.1218 15.06414988183524
STARLINK-1822           
1 46719U 20073BB  24044.14498531  .00014139  00000+0  96546-3 0  9998
2 46719  53.0554  13.3916 0001366  86.1535 273.9610 15.06428543184018
STARLINK-1825           
1 46722U 20073BE  24044.58334491  .00639844  00000+0  19427-1 0  9991
2 46722  53.0542  44.2142 0001540  75.7453 325.2122 15.31270449183612
STARLINK-1826           
1 46723U 20073BF  24044.14729094  .00014832  00000+0  10118-2 0  9994
2 46723  53.0539   8.3783 0001283  87.7595 272.3541 15.06427102184086
STARLINK-1828           
1 46725U 20073BH  24044.15097912 -.00004918  00000+0 -31164-3 0  9995
2 46725  53.0537  48.3610 0001277  48.8262 311.2837 15.06384263183520
STARLINK-1829           
1 46726U 20073BJ  24044.17537742  .00008179  00000+0  56701-3 0  9993
2 46726  53.0550  33.2432 0001422  88.5344 271.5808 15.06421017183733
STARLINK-1830           
1 46727U 20073BK  24044.26523376 -.00005985  00000+0 -38330-3 0  9994
2 46727  53.0557   7.8483 0001869  94.2025 265.9178 15.06392151184104
STARLINK-1848           
1 46740U 20074B   24044.49099277  .00019494  00000+0  13227-2 0  9998
2 46740  53.0534 116.8372 0001508  95.2572 264.8589 15.06435546182793
STARLINK-1865           
1 46741U 20074C   24044.17632728  .00006346  00000+0  44448-3 0  9990
2 46741  53.0528 113.2537 0001763  71.9513 288.1668 15.06403887182824
STARLINK-1892           
1 46743U 20074E   24044.50068244  .00002038  00000+0  15566-3 0  9998
2 46743  53.0534 111.7929 0001331 102.7106 257.4032 15.06402102182871
STARLINK-1894           
1 46744U 20074F   24044.41225999  .00000324  00000+0  40624-4 0  9991
2 46744  53.0536 112.4606 0001493  98.0749 262.0410 15.06412875182839
STARLINK-1905           
1 46746U 20074H   24044.46750429 -.00004318  00000+0 -27113-3 0  9995
2 46746  53.0537 111.9376 0001393 116.2954 243.8179 15.06404397182862
STARLINK-1908           
1 46747U 20074J   24044.18370086  .00005080  00000+0  35966-3 0  9992
2 46747  53.0547 113.2259 0001633  80.7935 279.3239 15.06404865182827
STARLINK-1910           
1 46748U 20074K   24044.45645015 -.00002118  00000+0 -12327-3 0  9997
2 46748  53.0538 111.9922 0001511  98.8980 261.2180 15.06407785182868
STARLINK-1911           
1 46749U 20074L   24043.46863193  .00005009  00000+0  35491-3 0  9994
2 46749  53.0529 116.4264 0001629  73.7364 286.3804 15.06402614182694
STARLINK-1920           
1 46751U 20074N   24044.46014159  .00019969  00000+0  13556-2 0  9995
2 46751  53.0523 111.9762 0001588  97.4746 262.6423 15.06401724182869
STARLINK-1921           
1 46752U 20074P   24044.40484951 -.00002695  00000+0 -16209-3 0  9990
2 46752  53.0545 112.2190 0001594 109.2911 250.8250 15.06405969182857
STARLINK-1922           
1 46753U 20074Q   24044.50437610  .00004196  00000+0  30036-3 0  9992
2 46753  53.0534 111.7785 0001635  95.3686 264.7489 15.06405617182870
STARLINK-1923           
1 46754U 20074R   24043.51655220  .00006052  00000+0  42481-3 0  9992
2 46754  53.0542 116.2132 0001894  79.3470 280.7732 15.06400979182725
